IRIDIUM 150             
1 43257U 18030J   23248.31851170  .00000167  00000+0  52546-4 0  9997
2 43257  86.4027 355.0308 0002335  86.3508 273.7955 14.34218764284559
IRIDIUM 143             
1 43258U 18030K   23248.99716192  .00000353  00000+0  11886-3 0  9994
2 43258  86.4033 354.7996 0001962  90.7320 269.4101 14.34221508284614
IRIDIUM 161             
1 43478U 18047C   23249.02684846  .00000048  00000+0  83118-5 0  9991
2 43478  86.4546 152.7690 0002346  84.4962 275.6506 14.43274290278711
IRIDIUM 152             
1 43479U 18047D   23248.27221317  .00000349  00000+0  11770-3 0  9995
2 43479  86.4022 152.9440 0001986  79.9135 280.2285 14.34216961276878
IRIDIUM 147             
1 43480U 18047E   23248.20878179  .00000364  00000+0  12283-3 0  9991
2 43480  86.4023 152.9578 0002242  87.7246 272.4207 14.34217508276863
IRIDIUM 110             
1 43481U 18047F   23248.98257477  .00000347  00000+0  11677-3 0  9996
2 43481  86.4025 152.7003 0002491  82.7208 277.4271 14.34219532276962
IRIDIUM 162             
1 43482U 18047G   23248.25790018  .00000460  00000+0  13084-3 0  9990
2 43482  86.4547 152.9937 0002263  83.2815 276.8643 14.43284296278593
IRIDIUM 160             
1 43569U 18061A   23248.92840831  .00000616  00000+0  21289-3 0  9994
2 43569  86.3969 121.1175 0002068  88.6468 271.4965 14.34219377267857
